[{"OBJECT_NAME":"SCS-01 J","OBJECT_ID":"2025-100J","EPOCH":"2026-03-09T22:31:25.904064","MEAN_MOTION":15.31338011,"ECCENTRICITY":0.00063909,"INCLINATION":97.3693,"RA_OF_ASC_NODE":145.4824,"ARG_OF_PERICENTER":272.025,"MEAN_ANOMALY":88.026,"EPHEMERIS_TYPE":0,"CLASSIFICATION_TYPE":"U","NORAD_CAT_ID":63990,"ELEMENT_SET_NO":999,"REV_AT_EPOCH":4563,"BSTAR":0.0011832888,"MEAN_MOTION_DOT":0.00035886,"MEAN_MOTION_DDOT":0},{"OBJECT_NAME":"STARLINK-34304","OBJECT_ID":"2025-117X","EPOCH":"2026-03-09T22:17:23.165376","MEAN_MOTION":15.30226831,"ECCENTRICITY":0.00020676,"INCLINATION":53.1606,"RA_OF_ASC_NODE":38.3954,"ARG_OF_PERICENTER":95.6566,"MEAN_ANOMALY":264.4671,"EPHEMERIS_TYPE":0,"CLASSIFICATION_TYPE":"U","NORAD_CAT_ID":64224,"ELEMENT_SET_NO":999,"REV_AT_EPOCH":4459,"BSTAR":0.0014177818,"MEAN_MOTION_DOT":0.00041904,"MEAN_MOTION_DDOT":0}]
